{
  "type": "FeatureCollection",
  "features": [
    {
      "type": "Feature",
      "properties": {
        "norad_id": 39617,
        "name": "ASTRA 5B (EGNOS/PRN 123)",
        "group": "gnss",
        "lat": -0.06864420849883301,
        "lon": -101.9535723949539,
        "alt_km": 35768.827513621836,
        "timestamp": "2025-12-21T09:37:22.896852+00:00",
        "meta_object_name": "ASTRA 5B (EGNOS/PRN 123)",
        "meta_object_id": "2014-011B",
        "meta_epoch": "2025-12-21T03:07:38.663040",
        "meta_mean_motion": 1.00269774,
        "meta_eccentricity": 0.0004449,
        "meta_inclination": 0.0434,
        "meta_ra_of_asc_node": 1.7031,
        "meta_arg_of_pericenter": 275.7187,
        "meta_mean_anomaly": 242.9509,
        "meta_ephemeris_type": 0,
        "meta_classification_type": "U",
        "meta_norad_cat_id": 39617,
        "meta_element_set_no": 999,
        "meta_rev_at_epoch": 4288,
        "meta_bstar": 0,
        "meta_mean_motion_dot": 1.6e-06,
        "meta_mean_motion_ddot": 0,
        "tle_line1": "1 39617U 14011B   25355.13030860  .00000160  00000+0  00000+0 0  9999",
        "tle_line2": "2 39617   0.0434   1.7031 0004449 275.7187 242.9509  1.00269774 42888"
      },
      "geometry": {
        "type": "Point",
        "coordinates": [
          -101.9535723949539,
          -0.06864420849883301
        ]
      }
    },
    {
      "type": "Feature",
      "properties": {
        "norad_id": 39620,
        "name": "COSMOS 2492 (754)",
        "group": "gnss",
        "lat": -57.16060020904531,
        "lon": -85.22116333645253,
        "alt_km": 19101.91087921457,
        "timestamp": "2025-12-21T09:37:22.896865+00:00",
        "meta_object_name": "COSMOS 2492 (754)",
        "meta_object_id": "2014-012A",
        "meta_epoch": "2025-12-21T00:28:06.093408",
        "meta_mean_motion": 2.13103398,
        "meta_eccentricity": 0.0014228,
        "meta_inclination": 65.4029,
        "meta_ra_of_asc_node": 319.9893,
        "meta_arg_of_pericenter": 312.8243,
        "meta_mean_anomaly": 47.0487,
        "meta_ephemeris_type": 0,
        "meta_classification_type": "U",
        "meta_norad_cat_id": 39620,
        "meta_element_set_no": 999,
        "meta_rev_at_epoch": 9144,
        "meta_bstar": 0,
        "meta_mean_motion_dot": -4.8e-07,
        "meta_mean_motion_ddot": 0,
        "tle_line1": "1 39620U 14012A   25355.01951497 -.00000048  00000+0  00000+0 0  9995",
        "tle_line2": "2 39620  65.4029 319.9893 0014228 312.8243  47.0487  2.13103398 91448"
      },
      "geometry": {
        "type": "Point",
        "coordinates": [
          -85.22116333645253,
          -57.16060020904531
        ]
      }
    },
    {
      "type": "Feature",
      "properties": {
        "norad_id": 39635,
        "name": "IRNSS-1B",
        "group": "gnss",
        "lat": 20.736265527171152,
        "lon": -73.95953491713642,
        "alt_km": 35856.33013222023,
        "timestamp": "2025-12-21T09:37:22.896877+00:00",
        "meta_object_name": "IRNSS-1B",
        "meta_object_id": "2014-017A",
        "meta_epoch": "2025-12-20T18:37:43.503744",
        "meta_mean_motion": 1.00271109,
        "meta_eccentricity": 0.00186822,
        "meta_inclination": 29.2525,
        "meta_ra_of_asc_node": 243.4669,
        "meta_arg_of_pericenter": 249.4131,
        "meta_mean_anomaly": 291.5281,
        "meta_ephemeris_type": 0,
        "meta_classification_type": "U",
        "meta_norad_cat_id": 39635,
        "meta_element_set_no": 999,
        "meta_rev_at_epoch": 4300,
        "meta_bstar": 0,
        "meta_mean_motion_dot": 1.52e-06,
        "meta_mean_motion_ddot": 0,
        "tle_line1": "1 39635U 14017A   25354.77619796  .00000152  00000+0  00000+0 0  9996",
        "tle_line2": "2 39635  29.2525 243.4669 0018682 249.4131 291.5281  1.00271109 43002"
      },
      "geometry": {
        "type": "Point",
        "coordinates": [
          -73.95953491713642,
          20.736265527171152
        ]
      }
    },
    {
      "type": "Feature",
      "properties": {
        "norad_id": 39727,
        "name": "LUCH 5V (SDCM/PRN 141)",
        "group": "gnss",
        "lat": -4.601956525194893,
        "lon": -30.7468177868641,
        "alt_km": 35774.49563585364,
        "timestamp": "2025-12-21T09:37:22.896889+00:00",
        "meta_object_name": "LUCH 5V (SDCM/PRN 141)",
        "meta_object_id": "2014-023A",
        "meta_epoch": "2025-12-21T03:22:35.591808",
        "meta_mean_motion": 1.00275989,
        "meta_eccentricity": 0.0003698,
        "meta_inclination": 4.69,
        "meta_ra_of_asc_node": 71.4702,
        "meta_arg_of_pericenter": 212.7539,
        "meta_mean_anomaly": 311.083,
        "meta_ephemeris_type": 0,
        "meta_classification_type": "U",
        "meta_norad_cat_id": 39727,
        "meta_element_set_no": 999,
        "meta_rev_at_epoch": 4257,
        "meta_bstar": 0,
        "meta_mean_motion_dot": -2.5e-06,
        "meta_mean_motion_ddot": 0,
        "tle_line1": "1 39727U 14023A   25355.14068972 -.00000250  00000+0  00000+0 0  9991",
        "tle_line2": "2 39727   4.6900  71.4702 0003698 212.7539 311.0830  1.00275989 42570"
      },
      "geometry": {
        "type": "Point",
        "coordinates": [
          -30.7468177868641,
          -4.601956525194893
        ]
      }
    },
    {
      "type": "Feature",
      "properties": {
        "norad_id": 39741,
        "name": "GPS BIIF-6  (PRN 06)",
        "group": "gnss",
        "lat": -39.107611918276646,
        "lon": -54.031705444391534,
        "alt_km": 20083.585081290505,
        "timestamp": "2025-12-21T09:37:22.896900+00:00",
        "meta_object_name": "GPS BIIF-6  (PRN 06)",
        "meta_object_id": "2014-026A",
        "meta_epoch": "2025-12-18T23:24:45.525888",
        "meta_mean_motion": 2.00561009,
        "meta_eccentricity": 0.00393411,
        "meta_inclination": 56.5812,
        "meta_ra_of_asc_node": 338.5339,
        "meta_arg_of_pericenter": 319.0443,
        "meta_mean_anomaly": 40.6665,
        "meta_ephemeris_type": 0,
        "meta_classification_type": "U",
        "meta_norad_cat_id": 39741,
        "meta_element_set_no": 999,
        "meta_rev_at_epoch": 8492,
        "meta_bstar": 0,
        "meta_mean_motion_dot": -8.1e-07,
        "meta_mean_motion_ddot": 0,
        "tle_line1": "1 39741U 14026A   25352.97552692 -.00000081  00000+0  00000+0 0  9997",
        "tle_line2": "2 39741  56.5812 338.5339 0039341 319.0443  40.6665  2.00561009 84924"
      },
      "geometry": {
        "type": "Point",
        "coordinates": [
          -54.031705444391534,
          -39.107611918276646
        ]
      }
    },
    {
      "type": "Feature",
      "properties": {
        "norad_id": 40001,
        "name": "COSMOS 2500 (755)",
        "group": "gnss",
        "lat": 17.626946287570362,
        "lon": 131.33124564877224,
        "alt_km": 19117.573321073294,
        "timestamp": "2025-12-21T09:37:22.896914+00:00",
        "meta_object_name": "COSMOS 2500 (755)",
        "meta_object_id": "2014-032A",
        "meta_epoch": "2025-12-20T06:04:27.939360",
        "meta_mean_motion": 2.13106249,
        "meta_eccentricity": 0.00077498,
        "meta_inclination": 65.339,
        "meta_ra_of_asc_node": 319.7771,
        "meta_arg_of_pericenter": 219.4032,
        "meta_mean_anomaly": 140.5324,
        "meta_ephemeris_type": 0,
        "meta_classification_type": "U",
        "meta_norad_cat_id": 40001,
        "meta_element_set_no": 999,
        "meta_rev_at_epoch": 8964,
        "meta_bstar": 0,
        "meta_mean_motion_dot": -5.3e-07,
        "meta_mean_motion_ddot": 0,
        "tle_line1": "1 40001U 14032A   25354.25310115 -.00000053  00000+0  00000+0 0  9999",
        "tle_line2": "2 40001  65.3390 319.7771 0007749 219.4032 140.5324  2.13106249 89640"
      },
      "geometry": {
        "type": "Point",
        "coordinates": [
          131.33124564877224,
          17.626946287570362
        ]
      }
    },
    {
      "type": "Feature",
      "properties": {
        "norad_id": 40105,
        "name": "GPS BIIF-7  (PRN 09)",
        "group": "gnss",
        "lat": -50.14377628959016,
        "lon": -28.267429080654594,
        "alt_km": 20241.0537806079,
        "timestamp": "2025-12-21T09:37:22.896925+00:00",
        "meta_object_name": "GPS BIIF-7  (PRN 09)",
        "meta_object_id": "2014-045A",
        "meta_epoch": "2025-12-18T01:34:21.644256",
        "meta_mean_motion": 2.00572958,
        "meta_eccentricity": 0.00325491,
        "meta_inclination": 55.2322,
        "meta_ra_of_asc_node": 95.6864,
        "meta_arg_of_pericenter": 120.0469,
        "meta_mean_anomaly": 240.2601,
        "meta_ephemeris_type": 0,
        "meta_classification_type": "U",
        "meta_norad_cat_id": 40105,
        "meta_element_set_no": 999,
        "meta_rev_at_epoch": 8244,
        "meta_bstar": 0,
        "meta_mean_motion_dot": -3.8e-07,
        "meta_mean_motion_ddot": 0,
        "tle_line1": "1 40105U 14045A   25352.06552829 -.00000038  00000+0  00000+0 0  9998",
        "tle_line2": "2 40105  55.2322  95.6864 0032549 120.0469 240.2601  2.00572958 82445"
      },
      "geometry": {
        "type": "Point",
        "coordinates": [
          -28.267429080654594,
          -50.14377628959016
        ]
      }
    }
  ]
}